[{"OBJECT_NAME":"HULIANWANG DIGUI-145","OBJECT_ID":"2026-007J","EPOCH":"2026-02-28T14:11:33.690624","MEAN_MOTION":13.48483859,"ECCENTRICITY":0.0002006,"INCLINATION":50.0082,"RA_OF_ASC_NODE":115.8806,"ARG_OF_PERICENTER":337.9638,"MEAN_ANOMALY":22.1156,"EPHEMERIS_TYPE":0,"CLASSIFICATION_TYPE":"U","NORAD_CAT_ID":67443,"ELEMENT_SET_NO":999,"REV_AT_EPOCH":633,"BSTAR":0.00014618,"MEAN_MOTION_DOT":-4.0e-7,"MEAN_MOTION_DDOT":0}]
